[{"OBJECT_NAME":"STARLINK-31243","OBJECT_ID":"2024-020U","EPOCH":"2026-03-09T23:28:23.906208","MEAN_MOTION":15.30183346,"ECCENTRICITY":9.473e-5,"INCLINATION":53.1612,"RA_OF_ASC_NODE":321.1924,"ARG_OF_PERICENTER":61.2522,"MEAN_ANOMALY":298.8574,"EPHEMERIS_TYPE":0,"CLASSIFICATION_TYPE":"U","NORAD_CAT_ID":58894,"ELEMENT_SET_NO":999,"REV_AT_EPOCH":11811,"BSTAR":0.00010783338,"MEAN_MOTION_DOT":2.834e-5,"MEAN_MOTION_DDOT":0},{"OBJECT_NAME":"OBJECT P","OBJECT_ID":"2018-099P","EPOCH":"2026-03-09T16:35:55.790016","MEAN_MOTION":15.30834106,"ECCENTRICITY":0.00076856,"INCLINATION":97.4366,"RA_OF_ASC_NODE":131.9195,"ARG_OF_PERICENTER":276.7627,"MEAN_ANOMALY":83.2739,"EPHEMERIS_TYPE":0,"CLASSIFICATION_TYPE":"U","NORAD_CAT_ID":43771,"ELEMENT_SET_NO":999,"REV_AT_EPOCH":39830,"BSTAR":0.00063632878,"MEAN_MOTION_DOT":0.00018926,"MEAN_MOTION_DDOT":0}]
